ZHONGXING-1E            
1 53813U 22112A   26164.63543778 -.00000138  00000+0  00000+0 0  9991
2 53813   0.0488 234.3648 0000880  82.5780 255.1506  1.00272633 13819
SES-20                  
1 53960U 22123A   26164.38506111 -.00000089  00000+0  00000+0 0  9993
2 53960   0.0356  73.8642 0001743  23.1645 200.1923  1.00268835 13492
SES-21                  
1 53961U 22123B   26164.52212005  .00000081  00000+0  00000+0 0  9997
2 53961   0.0255  32.2862 0000924  51.0642 235.4381  1.00269987  7177
GALAXY 33 (G-33)        
1 54026U 22128A   26164.52168671  .00000090  00000+0  00000+0 0  9994
2 54026   0.0102 326.4165 0001613 119.3295 230.9031  1.00270749 13709
GALAXY 34 (G-34)        
1 54027U 22128B   26163.95197634  .00000072  00000+0  00000+0 0  9992
2 54027   0.0151  10.9191 0001425  95.2882   8.7862  1.00272983 13876
ANGOSAT 2               
1 54033U 22131A   26164.05358706  .00000149  00000+0  00000+0 0  9999
2 54033   0.0338  82.1779 0001096  25.4033 196.0924  1.00272710 13430
EUTELSAT HOTBIRD 13F    
1 54048U 22134A   26164.12286395  .00000100  00000+0  00000+0 0  9997
2 54048   0.0466 293.4232 0002068  62.4091 322.8520  1.00272500 13331
LDPE-2                  
1 54219U 22144A   26164.56010370  .00000138  00000+0  00000+0 0  9995
2 54219   5.6041  63.6804 0001835 105.1995 133.7489  1.00530497 11807
EUTELSAT HOTBIRD 13G    
1 54225U 22146A   26164.12286395  .00000100  00000+0  00000+0 0  9997
2 54225   0.0484 228.8740 0002006 317.4684 132.3379  1.00272040  7425
ZHONGXING-19            
1 54230U 22148A   26164.50908265 -.00000070  00000+0  00000+0 0  9991
2 54230   0.0180 328.0415 0002234 141.0593 139.1839  1.00271221 13343
GALAXY 31 (G-31)        
1 54243U 22153A   26164.59540793  .00000000  00000+0  00000+0 0  9990
2 54243   0.0193   4.3076 0000966  72.0961 278.8404  1.00270070  7095
GALAXY 32 (G-32)        
1 54244U 22153B   26163.46063806 -.00000159  00000+0  00000+0 0  9997
2 54244   0.0112  15.0853 0002028  18.1712 302.3687  1.00271325 13092
EUTELSAT 10B            
1 54259U 22157A   26164.54993257  .00000080  00000+0  00000+0 0  9991
2 54259   0.0644 101.9532 0001243 332.6861  35.2152  1.00270619 12996
GALAXY 35 (G-35)        
1 54741U 22170A   26164.60086796  .00000000  00000+0  00000+0 0  9992
2 54741   0.0201 351.5323 0001762  93.6284 299.9584  1.00269466 12852
GALAXY 36 (G-36)        
1 54742U 22170B   26164.60173463 -.00000174  00000+0  00000+0 0  9994
2 54742   0.0412 126.2656 0002479 317.0469 306.2336  1.00271234 12737
METEOSAT-12 (MTG-I1)    
1 54743U 22170C   26164.61927816  .00000002  00000+0  00000+0 0  9994
2 54743   0.7339  22.3393 0003153  72.2402  29.8704  1.00271898 12940
USA 342                 
1 55263U 23008A   26161.27337965  .00000000  00000+0  00000+0 0  9990
2 55263   0.0036  23.3608 0000235 273.9776  83.6406  1.00272706 12448
LDPE-3A                 
1 55264U 23008B   26164.60060796 -.00000001  00000+0  00000+0 0  9998
2 55264   2.3381  81.7061 0001087  65.1365 236.8061  0.99144834 11770
ELEKTRO-L 4             
1 55506U 23016A   26163.81405255 -.00000044  00000+0  00000+0 0  9998
2 55506   0.0726 170.0495 0000720   3.9382 186.0219  1.00270498 12290
AMAZONAS NEXUS          
1 55508U 23017A   26164.53598678 -.00000271  00000+0  00000+0 0  9995
2 55508   0.0380  35.0002 0004969  30.1283 328.6867  1.00271031  7003
GAOFEN-13 02            
1 55912U 23036A   26164.66173516 -.00000208  00000+0  00000+0 0  9999
2 55912   1.0198   0.6552 0004144 335.9077 311.9385  1.00271171 12056
SES-18                  
1 55970U 23038A   26164.59896128 -.00000090  00000+0  00000+0 0  9997
2 55970   0.0193 295.3831 0000262   2.9941  76.0643  1.00271019 12063
SES-19                  
1 55971U 23038B   26164.02228935  .00000101  00000+0  00000+0 0  9993
2 55971   0.0109 333.5368 0001475 112.5219  48.4227  1.00272725 12059
INTELSAT 40E (IS-40E)   
1 56174U 23052A   26164.38740112 -.00000162  00000+0  00000+0 0  9998
2 56174   0.0152  35.3681 0001842  90.3377 184.4674  1.00271753 11780
VIASAT-3 F1             
1 56370U 23060A   26164.60173463  .00000000  00000+0  00000+0 0  9999
2 56370   0.0244 334.4849 0000950 100.6055 314.4769  1.00271217 11398
ARCTURUS                
1 56371U 23060B   26164.49108117 -.00000053  00000+0  00000+0 0  9990
2 56371   2.7665  79.9946 0002450  47.0471  24.0376  1.00272241 11427
GS-1                    
1 56372U 23060C   26159.64661679 -.00000208  00000+0  00000+0 0  9991
2 56372   2.7050  79.9310 0004125 279.9950 219.1575  1.00277054  7453
BEIDOU-3 G4             
1 56564U 23066A   26164.64698648 -.00000270  00000+0  00000+0 0  9991
2 56564   0.4909 330.4881 0004310 181.9757 122.4029  1.00274874 11356
