OBJECT_NAME,OBJECT_ID,EPOCH,MEAN_MOTION,ECCENTRICITY,INCLINATION,RA_OF_ASC_NODE,ARG_OF_PERICENTER,MEAN_ANOMALY,EPHEMERIS_TYPE,CLASSIFICATION_TYPE,NORAD_CAT_ID,ELEMENT_SET_NO,REV_AT_EPOCH,BSTAR,MEAN_MOTION_DOT,MEAN_MOTION_DDOT
ZHONGXING-1E,2022-112A,2026-06-13T15:15:01.824192,1.00272633,.000088,0.0488,234.3648,82.5780,255.1506,0,U,53813,999,1381,0,-.138E-5,0
SES-20,2022-123A,2026-06-13T09:14:29.279904,1.00268835,.00017438,0.0356,73.8642,23.1645,200.1923,0,U,53960,999,1349,0,-.89E-6,0
SES-21,2022-123B,2026-06-13T12:31:51.172320,1.00269987,.00009241,0.0255,32.2862,51.0642,235.4381,0,U,53961,999,717,0,.81E-6,0
GALAXY 33 (G-33),2022-128A,2026-06-13T12:31:13.731744,1.00270749,.00016136,0.0102,326.4165,119.3295,230.9031,0,U,54026,999,1370,0,.9E-6,0
GALAXY 34 (G-34),2022-128B,2026-06-12T22:50:50.755776,1.00272983,.00014255,0.0151,10.9191,95.2882,8.7862,0,U,54027,999,1387,0,.72E-6,0
ANGOSAT 2,2022-131A,2026-06-13T01:17:09.921984,1.00272710,.00010968,0.0338,82.1779,25.4033,196.0924,0,U,54033,999,1343,0,.149E-5,0
EUTELSAT HOTBIRD 13F,2022-134A,2026-06-13T02:56:55.445280,1.00272500,.00020688,0.0466,293.4232,62.4091,322.8520,0,U,54048,999,1333,0,.1E-5,0
LDPE-2,2022-144A,2026-06-13T13:26:32.959680,1.00530497,.00018354,5.6041,63.6804,105.1995,133.7489,0,U,54219,999,1180,0,.138E-5,0
EUTELSAT HOTBIRD 13G,2022-146A,2026-06-13T02:56:55.445280,1.00272040,.00020061,0.0484,228.8740,317.4684,132.3379,0,U,54225,999,742,0,.1E-5,0
ZHONGXING-19,2022-148A,2026-06-13T12:13:04.740960,1.00271221,.00022341,0.0180,328.0415,141.0593,139.1839,0,U,54230,999,1334,0,-.7E-6,0
GALAXY 31 (G-31),2022-153A,2026-06-13T14:17:23.245152,1.00270070,.00009663,0.0193,4.3076,72.0961,278.8404,0,U,54243,999,709,0,0,0
GALAXY 32 (G-32),2022-153B,2026-06-12T11:03:19.128384,1.00271325,.0002028,0.0112,15.0853,18.1712,302.3687,0,U,54244,999,1309,0,-.159E-5,0
EUTELSAT 10B,2022-157A,2026-06-13T13:11:54.174048,1.00270619,.00012438,0.0644,101.9532,332.6861,35.2152,0,U,54259,999,1299,0,.8E-6,0
GALAXY 35 (G-35),2022-170A,2026-06-13T14:25:14.991744,1.00269466,.00017626,0.0201,351.5323,93.6284,299.9584,0,U,54741,999,1285,0,0,0
GALAXY 36 (G-36),2022-170B,2026-06-13T14:26:29.872032,1.00271234,.00024797,0.0412,126.2656,317.0469,306.2336,0,U,54742,999,1273,0,-.174E-5,0
METEOSAT-12 (MTG-I1),2022-170C,2026-06-13T14:51:45.633024,1.00271898,.00031531,0.7339,22.3393,72.2402,29.8704,0,U,54743,999,1294,0,.2E-7,0
USA 342,2023-008A,2026-06-10T06:33:40.001760,1.00272706,.0000235,0.0036,23.3608,273.9776,83.6406,0,U,55263,999,1244,0,0,0
LDPE-3A,2023-008B,2026-06-13T14:24:52.527744,0.99144834,.00010878,2.3381,81.7061,65.1365,236.8061,0,U,55264,999,1177,0,-.1E-7,0
ELEKTRO-L 4,2023-016A,2026-06-12T19:32:14.140320,1.00270498,.00007205,0.0726,170.0495,3.9382,186.0219,0,U,55506,999,1229,0,-.44E-6,0
AMAZONAS NEXUS,2023-017A,2026-06-13T12:51:49.257792,1.00271031,.00049696,0.0380,35.0002,30.1283,328.6867,0,U,55508,999,700,0,-.271E-5,0
GAOFEN-13 02,2023-036A,2026-06-13T15:52:53.917824,1.00271171,.00041449,1.0198,0.6552,335.9077,311.9385,0,U,55912,999,1205,0,-.208E-5,0
SES-18,2023-038A,2026-06-13T14:22:30.254592,1.00271019,.00002626,0.0193,295.3831,2.9941,76.0643,0,U,55970,999,1206,0,-.9E-6,0
SES-19,2023-038B,2026-06-13T00:32:05.799840,1.00272725,.00014752,0.0109,333.5368,112.5219,48.4227,0,U,55971,999,1205,0,.101E-5,0
INTELSAT 40E (IS-40E),2023-052A,2026-06-13T09:17:51.456768,1.00271753,.0001842,0.0152,35.3681,90.3377,184.4674,0,U,56174,999,1178,0,-.162E-5,0
VIASAT-3 F1,2023-060A,2026-06-13T14:26:29.872032,1.00271217,.00009507,0.0244,334.4849,100.6055,314.4769,0,U,56370,999,1139,0,0,0
ARCTURUS,2023-060B,2026-06-13T11:47:09.413088,1.00272241,.00024507,2.7665,79.9946,47.0471,24.0376,0,U,56371,999,1142,0,-.53E-6,0
GS-1,2023-060C,2026-06-08T15:31:07.690656,1.00277054,.00041256,2.7050,79.9310,279.9950,219.1575,0,U,56372,999,745,0,-.208E-5,0
BEIDOU-3 G4,2023-066A,2026-06-13T15:31:39.631872,1.00274874,.00043109,0.4909,330.4881,181.9757,122.4029,0,U,56564,999,1135,0,-.27E-5,0
